start=new Date('2023-01-24T00:00:00.000Z').valueOf();
sats=[{"MEAN_MOTION_DDOT":"0.0000000000000","NORAD_CAT_ID":"54204","FILE":"3758989","CLASSIFICATION_TYPE":"U","BSTAR":"-0.06441300000000","PERIOD":"95.066","GP_ID":"223616752","TIME_SYSTEM":"UTC","REF_FRAME":"TEME","TLE_LINE2":"2 54204  53.2121  74.8639 0001157  80.6831 338.8681 15.14744259 14013","APOAPSIS":"522.555","OBJECT_TYPE":"PAYLOAD","REV_AT_EPOCH":"1401","COUNTRY_CODE":"US","OBJECT_NAME":"STARLINK-5241","MEAN_ELEMENT_THEORY":"SGP4","TLE_LINE1":"1 54204U 22141AZ  23023.91667824 -.01115640  00000-0 -64413-1 0  9997","EPHEMERIS_TYPE":"0","SEMIMAJOR_AXIS":"6899.892","ELEMENT_SET_NO":"999","MEAN_MOTION_DOT":"-0.01115640","MEAN_ANOMALY":"338.8681","INCLINATION":"53.2121","MEAN_MOTION":"15.14744259","RA_OF_ASC_NODE":"74.8639","OBJECT_ID":"2022-141AZ","CENTER_NAME":"EARTH","LAUNCH_DATE":"2022-10-28","PERIAPSIS":"520.959","ECCENTRICITY":"0.00011570","SITE":"AFWTR","DECAY_DATE":null,"RCS_SIZE":"LARGE","EPOCH":"2023-01-23T22:00:00.999936","ARG_OF_PERICENTER":"80.6831"},{"CENTER_NAME":"EARTH","LAUNCH_DATE":"2022-10-28","PERIAPSIS":"522.840","ECCENTRICITY":"0.00011630","DECAY_DATE":null,"SITE":"AFWTR","RCS_SIZE":"LARGE","EPOCH":"2023-01-23T22:00:00.999936","ARG_OF_PERICENTER":"82.4363","MEAN_ELEMENT_THEORY":"SGP4","TLE_LINE1":"1 54205U 22141BA  23023.91667824 -.01113780  00000-0 -65440-1 0  9992","EPHEMERIS_TYPE":"0","SEMIMAJOR_AXIS":"6901.778","ELEMENT_SET_NO":"999","MEAN_MOTION_DOT":"-0.01113780","MEAN_ANOMALY":"302.1919","INCLINATION":"53.2110","MEAN_MOTION":"15.14123458","OBJECT_ID":"2022-141BA","RA_OF_ASC_NODE":"74.9330","TLE_LINE2":"2 54205  53.2110  74.9330 0001163  82.4363 302.1919 15.14123458 14018","APOAPSIS":"524.446","OBJECT_TYPE":"PAYLOAD","COUNTRY_CODE":"US","REV_AT_EPOCH":"1401","OBJECT_NAME":"STARLINK-5249","MEAN_MOTION_DDOT":"0.0000000000000","FILE":"3758989","NORAD_CAT_ID":"54205","CLASSIFICATION_TYPE":"U","BSTAR":"-0.06544000000000","PERIOD":"95.105","GP_ID":"223616755","REF_FRAME":"TEME","TIME_SYSTEM":"UTC"},{"OBJECT_NAME":"STARLINK-5264","APOAPSIS":"350.507","OBJECT_TYPE":"PAYLOAD","TLE_LINE2":"2 54206  53.2160  71.0500 0001129  92.2106 267.9043 15.73204410 14027","COUNTRY_CODE":"US","REV_AT_EPOCH":"1402","GP_ID":"223616756","PERIOD":"91.533","TIME_SYSTEM":"UTC","REF_FRAME":"TEME","MEAN_MOTION_DDOT":"0.0000000000000","CLASSIFICATION_TYPE":"U","BSTAR":"0.00000358730000","FILE":"3758989","NORAD_CAT_ID":"54206","DECAY_DATE":null,"SITE":"AFWTR","RCS_SIZE":"LARGE","ARG_OF_PERICENTER":"92.2106","EPOCH":"2023-01-23T09:59:41.702496","ECCENTRICITY":"0.00011290","CENTER_NAME":"EARTH","LAUNCH_DATE":"2022-10-28","PERIAPSIS":"348.988","MEAN_ANOMALY":"267.9043","RA_OF_ASC_NODE":"71.0500","OBJECT_ID":"2022-141BB","INCLINATION":"53.2160","MEAN_MOTION":"15.73204410","MEAN_ELEMENT_THEORY":"SGP4","EPHEMERIS_TYPE":"0","SEMIMAJOR_AXIS":"6727.883","ELEMENT_SET_NO":"999","MEAN_MOTION_DOT":"-0.00000116","TLE_LINE1":"1 54206U 22141BB  23023.41645489 -.00000116  00000-0  35873-5 0  9998"},{"MEAN_MOTION":"15.15249631","INCLINATION":"53.2120","OBJECT_ID":"2022-141BC","RA_OF_ASC_NODE":"76.4112","MEAN_ANOMALY":"305.0852","TLE_LINE1":"1 54207U 22141BC  23023.58334491 -.01106831  00000-0 -62951-1 0  9991","MEAN_MOTION_DOT":"-0.01106831","ELEMENT_SET_NO":"999","SEMIMAJOR_AXIS":"6898.358","EPHEMERIS_TYPE":"0","MEAN_ELEMENT_THEORY":"SGP4","EPOCH":"2023-01-23T14:00:01.000224","ARG_OF_PERICENTER":"78.2435","DECAY_DATE":null,"RCS_SIZE":"LARGE","SITE":"AFWTR","LAUNCH_DATE":"2022-10-28","PERIAPSIS":"519.426","CENTER_NAME":"EARTH","ECCENTRICITY":"0.00011550","REF_FRAME":"TEME","TIME_SYSTEM":"UTC","PERIOD":"95.034","GP_ID":"223610062","FILE":"3758675","NORAD_CAT_ID":"54207","BSTAR":"-0.06295100000000","CLASSIFICATION_TYPE":"U","MEAN_MOTION_DDOT":"0.0000000000000","OBJECT_NAME":"STARLINK-5262","REV_AT_EPOCH":"1396","COUNTRY_CODE":"US","TLE_LINE2":"2 54207  53.2120  76.4112 0001155  78.2435 305.0852 15.15249631 13964","OBJECT_TYPE":"PAYLOAD","APOAPSIS":"521.020"},{"PERIOD":"91.533","GP_ID":"223616753","TIME_SYSTEM":"UTC","REF_FRAME":"TEME","MEAN_MOTION_DDOT":"0.0000000000000","FILE":"3758989","NORAD_CAT_ID":"54208","BSTAR":"0.00004279000000","CLASSIFICATION_TYPE":"U","OBJECT_NAME":"STARLINK-5255","TLE_LINE2":"2 54208  53.2147  70.9821 0001432  81.2533 278.8649 15.73200868 14034","OBJECT_TYPE":"PAYLOAD","APOAPSIS":"350.721","REV_AT_EPOCH":"1403","COUNTRY_CODE":"US","MEAN_ANOMALY":"278.8649","MEAN_MOTION":"15.73200868","INCLINATION":"53.2147","OBJECT_ID":"2022-141BD","RA_OF_ASC_NODE":"70.9821","MEAN_ELEMENT_THEORY":"SGP4","TLE_LINE1":"1 54208U 22141BD  23023.51666980  .00005389  00000-0  42790-4 0  9991","MEAN_MOTION_DOT":"0.00005389","EPHEMERIS_TYPE":"0","SEMIMAJOR_AXIS":"6727.893","ELEMENT_SET_NO":"999","RCS_SIZE":"LARGE","DECAY_DATE":null,"SITE":"AFWTR","EPOCH":"2023-01-23T12:24:00.270720","ARG_OF_PERICENTER":"81.2533","LAUNCH_DATE":"2022-10-28","PERIAPSIS":"348.794","CENTER_NAME":"EARTH","ECCENTRICITY":"0.00014320"},{"APOAPSIS":"373.889","OBJECT_TYPE":"PAYLOAD","TLE_LINE2":"2 54209  53.2137  70.4268 0000038  88.8573 271.2448 15.64783393 14057","REV_AT_EPOCH":"1405","COUNTRY_CODE":"US","OBJECT_NAME":"STARLINK-5259","MEAN_MOTION_DDOT":"0.0000000000000","CLASSIFICATION_TYPE":"U","BSTAR":"-0.00616230000000","FILE":"3758991","NORAD_CAT_ID":"54209","GP_ID":"223617265","PERIOD":"92.026","TIME_SYSTEM":"UTC","REF_FRAME":"TEME","ECCENTRICITY":"0.00000380","CENTER_NAME":"EARTH","PERIAPSIS":"373.838","LAUNCH_DATE":"2022-10-28","DECAY_DATE":null,"RCS_SIZE":"LARGE","SITE":"AFWTR","ARG_OF_PERICENTER":"88.8573","EPOCH":"2023-01-23T15:43:48.716544","MEAN_ELEMENT_THEORY":"SGP4","EPHEMERIS_TYPE":"0","SEMIMAJOR_AXIS":"6751.999","ELEMENT_SET_NO":"999","MEAN_MOTION_DOT":"-0.00570703","TLE_LINE1":"1 54209U 22141BE  23023.65542496 -.00570703  00000-0 -61623-2 0  9995","MEAN_ANOMALY":"271.2448","RA_OF_ASC_NODE":"70.4268","OBJECT_ID":"2022-141BE","INCLINATION":"53.2137","MEAN_MOTION":"15.64783393"},{"MEAN_ELEMENT_THEORY":"SGP4","ELEMENT_SET_NO":"999","SEMIMAJOR_AXIS":"6795.236","EPHEMERIS_TYPE":"0","MEAN_MOTION_DOT":"-0.00021249","TLE_LINE1":"1 54758U 22175A   23023.58334491 -.00021249  00000-0 -36760-3 0  9998","MEAN_ANOMALY":"151.6359","RA_OF_ASC_NODE":"125.3400","OBJECT_ID":"2022-175A","INCLINATION":"53.2152","MEAN_MOTION":"15.49872439","ECCENTRICITY":"0.00013000","CENTER_NAME":"EARTH","LAUNCH_DATE":"2022-12-17","PERIAPSIS":"416.218","SITE":"AFETR","DECAY_DATE":null,"RCS_SIZE":"LARGE","ARG_OF_PERICENTER":"71.3236","EPOCH":"2023-01-23T14:00:01.000224","MEAN_MOTION_DDOT":"0.0000000000000","CLASSIFICATION_TYPE":"U","BSTAR":"-0.00036760000000","FILE":"3758821","NORAD_CAT_ID":"54758","GP_ID":"223613824","PERIOD":"92.911","REF_FRAME":"TEME","TIME_SYSTEM":"UTC","APOAPSIS":"417.984","OBJECT_TYPE":"PAYLOAD","TLE_LINE2":"2 54758  53.2152 125.3400 0001300  71.3236 151.6359 15.49872439  4231","REV_AT_EPOCH":"423","COUNTRY_CODE":"US","OBJECT_NAME":"STARLINK-5464"},{"ECCENTRICITY":"0.00011980","PERIAPSIS":"416.259","LAUNCH_DATE":"2022-12-17","CENTER_NAME":"EARTH","SITE":"AFETR","DECAY_DATE":null,"RCS_SIZE":"LARGE","ARG_OF_PERICENTER":"78.5045","EPOCH":"2023-01-23T14:00:01.000224","MEAN_ELEMENT_THEORY":"SGP4","MEAN_MOTION_DOT":"-0.00011150","SEMIMAJOR_AXIS":"6795.208","EPHEMERIS_TYPE":"0","ELEMENT_SET_NO":"999","TLE_LINE1":"1 54759U 22175B   23023.58334491 -.00011150  00000-0 -18880-3 0  9992","MEAN_ANOMALY":"147.0001","RA_OF_ASC_NODE":"125.3319","OBJECT_ID":"2022-175B","MEAN_MOTION":"15.49882085","INCLINATION":"53.2149","OBJECT_TYPE":"PAYLOAD","APOAPSIS":"417.887","TLE_LINE2":"2 54759  53.2149 125.3319 0001198  78.5045 147.0001 15.49882085  5501","REV_AT_EPOCH":"550","COUNTRY_CODE":"US","OBJECT_NAME":"STARLINK-5215","MEAN_MOTION_DDOT":"0.0000000000000","BSTAR":"-0.00018880000000","CLASSIFICATION_TYPE":"U","FILE":"3758833","NORAD_CAT_ID":"54759","GP_ID":"223613673","PERIOD":"92.910","REF_FRAME":"TEME","TIME_SYSTEM":"UTC"},{"SEMIMAJOR_AXIS":"6852.559","EPHEMERIS_TYPE":"0","ELEMENT_SET_NO":"999","MEAN_MOTION_DOT":"-0.01183901","TLE_LINE1":"1 54760U 22175C   23023.58334491 -.01183901  00000-0 -43655-1 0  9995","MEAN_ELEMENT_THEORY":"SGP4","RA_OF_ASC_NODE":"127.5720","OBJECT_ID":"2022-175C","INCLINATION":"53.2162","MEAN_MOTION":"15.30465517","MEAN_ANOMALY":"112.9587","ECCENTRICITY":"0.00014670","CENTER_NAME":"EARTH","LAUNCH_DATE":"2022-12-17","PERIAPSIS":"473.419","ARG_OF_PERICENTER":"77.6254","EPOCH":"2023-01-23T14:00:01.000224","RCS_SIZE":"LARGE","DECAY_DATE":null,"SITE":"AFETR","CLASSIFICATION_TYPE":"U","BSTAR":"-0.04365500000000","FILE":"3758825","NORAD_CAT_ID":"54760","MEAN_MOTION_DDOT":"0.0000000000000","REF_FRAME":"TEME","TIME_SYSTEM":"UTC","GP_ID":"223613991","PERIOD":"94.089","REV_AT_EPOCH":"547","COUNTRY_CODE":"US","APOAPSIS":"475.430","OBJECT_TYPE":"PAYLOAD","TLE_LINE2":"2 54760  53.2162 127.5720 0001467  77.6254 112.9587 15.30465517  5472","OBJECT_NAME":"STARLINK-5220"},{"LAUNCH_DATE":"2022-12-17","PERIAPSIS":"474.364","CENTER_NAME":"EARTH","ECCENTRICITY":"0.00014660","DECAY_DATE":null,"RCS_SIZE":"LARGE","SITE":"AFETR","EPOCH":"2023-01-23T14:00:01.000224","ARG_OF_PERICENTER":"86.4434","MEAN_ELEMENT_THEORY":"SGP4","TLE_LINE1":"1 54761U 22175D   23023.58334491 -.01199052  00000-0 -44043-1 0  9992","MEAN_MOTION_DOT":"-0.01199052","SEMIMAJOR_AXIS":"6853.504","EPHEMERIS_TYPE":"0","ELEMENT_SET_NO":"999","MEAN_ANOMALY":"93.6165","MEAN_MOTION":"15.30149239","INCLINATION":"53.2162","RA_OF_ASC_NODE":"127.5919","OBJECT_ID":"2022-175D","TLE_LINE2":"2 54761  53.2162 127.5919 0001466  86.4434  93.6165 15.30149239  5477","OBJECT_TYPE":"PAYLOAD","APOAPSIS":"476.373","COUNTRY_CODE":"US","REV_AT_EPOCH":"547","OBJECT_NAME":"STARLINK-5202","MEAN_MOTION_DDOT":"0.0000000000000","FILE":"3758825","NORAD_CAT_ID":"54761","BSTAR":"-0.04404300000000","CLASSIFICATION_TYPE":"U","PERIOD":"94.108","GP_ID":"223613995","TIME_SYSTEM":"UTC","REF_FRAME":"TEME"}];
